NAVSTAR 77 (USA 289)    
1 43873U 18109A   24003.64830644  .00000034  00000+0  00000+0 0  9993
2 43873  55.2360 127.5712 0028179 191.5135 231.4271  2.00572651 37115
